{
  "type": "FeatureCollection",
  "features": [
    {
      "type": "Feature",
      "properties": {
        "norad_id": 67046,
        "name": "STARLINK-35721",
        "group": "last-30-days",
        "lat": 41.585363736073276,
        "lon": -153.27950792936247,
        "alt_km": 364.0556450721797,
        "timestamp": "2025-12-26T08:37:53.294258+00:00",
        "meta_object_name": "STARLINK-35721",
        "meta_object_id": "2025-294S",
        "meta_epoch": "2025-12-26T04:00:01.998720",
        "meta_mean_motion": 15.67068101,
        "meta_eccentricity": 0.0001344,
        "meta_inclination": 42.9995,
        "meta_ra_of_asc_node": 100.1109,
        "meta_arg_of_pericenter": 278.8008,
        "meta_mean_anomaly": 174.7971,
        "meta_ephemeris_type": 0,
        "meta_classification_type": "U",
        "meta_norad_cat_id": 67046,
        "meta_element_set_no": 999,
        "meta_rev_at_epoch": 246,
        "meta_bstar": -0.019879,
        "meta_mean_motion_dot": -0.01930712,
        "meta_mean_motion_ddot": 0,
        "tle_line1": "1 67046U 25294S   25360.16668980 -.01930712  00000+0 -19879-1 0  9994",
        "tle_line2": "2 67046  42.9995 100.1109 0001344 278.8008 174.7971 15.67068101  2463"
      },
      "geometry": {
        "type": "Point",
        "coordinates": [
          -153.27950792936247,
          41.585363736073276
        ]
      }
    },
    {
      "type": "Feature",
      "properties": {
        "norad_id": 67047,
        "name": "STARLINK-35779",
        "group": "last-30-days",
        "lat": 41.089591042569715,
        "lon": -150.41554900228547,
        "alt_km": 364.32094679508464,
        "timestamp": "2025-12-26T08:37:53.294268+00:00",
        "meta_object_name": "STARLINK-35779",
        "meta_object_id": "2025-294T",
        "meta_epoch": "2025-12-26T04:00:01.998720",
        "meta_mean_motion": 15.6705557,
        "meta_eccentricity": 0.0001536,
        "meta_inclination": 42.9994,
        "meta_ra_of_asc_node": 100.1054,
        "meta_arg_of_pericenter": 280.982,
        "meta_mean_anomaly": 174.8348,
        "meta_ephemeris_type": 0,
        "meta_classification_type": "U",
        "meta_norad_cat_id": 67047,
        "meta_element_set_no": 999,
        "meta_rev_at_epoch": 226,
        "meta_bstar": -0.02006,
        "meta_mean_motion_dot": -0.01945468,
        "meta_mean_motion_ddot": 0,
        "tle_line1": "1 67047U 25294T   25360.16668980 -.01945468  00000+0 -20060-1 0  9993",
        "tle_line2": "2 67047  42.9994 100.1054 0001536 280.9820 174.8348 15.67055570  2264"
      },
      "geometry": {
        "type": "Point",
        "coordinates": [
          -150.41554900228547,
          41.089591042569715
        ]
      }
    },
    {
      "type": "Feature",
      "properties": {
        "norad_id": 67048,
        "name": "STARLINK-35905",
        "group": "last-30-days",
        "lat": 40.59453832392478,
        "lon": -147.92927327756516,
        "alt_km": 364.3582124348068,
        "timestamp": "2025-12-26T08:37:53.294278+00:00",
        "meta_object_name": "STARLINK-35905",
        "meta_object_id": "2025-294U",
        "meta_epoch": "2025-12-26T04:00:01.998720",
        "meta_mean_motion": 15.67053615,
        "meta_eccentricity": 0.0001473,
        "meta_inclination": 42.9995,
        "meta_ra_of_asc_node": 100.1001,
        "meta_arg_of_pericenter": 280.6249,
        "meta_mean_anomaly": 177.1402,
        "meta_ephemeris_type": 0,
        "meta_classification_type": "U",
        "meta_norad_cat_id": 67048,
        "meta_element_set_no": 999,
        "meta_rev_at_epoch": 238,
        "meta_bstar": -0.020068,
        "meta_mean_motion_dot": -0.01945991,
        "meta_mean_motion_ddot": 0,
        "tle_line1": "1 67048U 25294U   25360.16668980 -.01945991  00000+0 -20068-1 0  9993",
        "tle_line2": "2 67048  42.9995 100.1001 0001473 280.6249 177.1402 15.67053615  2388"
      },
      "geometry": {
        "type": "Point",
        "coordinates": [
          -147.92927327756516,
          40.59453832392478
        ]
      }
    },
    {
      "type": "Feature",
      "properties": {
        "norad_id": 67049,
        "name": "STARLINK-35877",
        "group": "last-30-days",
        "lat": 39.984104349286575,
        "lon": -145.21695323559968,
        "alt_km": 364.4464467259695,
        "timestamp": "2025-12-26T08:37:53.294288+00:00",
        "meta_object_name": "STARLINK-35877",
        "meta_object_id": "2025-294V",
        "meta_epoch": "2025-12-26T04:00:01.998720",
        "meta_mean_motion": 15.6702985,
        "meta_eccentricity": 0.0001382,
        "meta_inclination": 42.9997,
        "meta_ra_of_asc_node": 100.0947,
        "meta_arg_of_pericenter": 281.9147,
        "meta_mean_anomaly": 178.0237,
        "meta_ephemeris_type": 0,
        "meta_classification_type": "U",
        "meta_norad_cat_id": 67049,
        "meta_element_set_no": 999,
        "meta_rev_at_epoch": 246,
        "meta_bstar": -0.019989,
        "meta_mean_motion_dot": -0.01937499,
        "meta_mean_motion_ddot": 0,
        "tle_line1": "1 67049U 25294V   25360.16668980 -.01937499  00000+0 -19989-1 0  9998",
        "tle_line2": "2 67049  42.9997 100.0947 0001382 281.9147 178.0237 15.67029850  2468"
      },
      "geometry": {
        "type": "Point",
        "coordinates": [
          -145.21695323559968,
          39.984104349286575
        ]
      }
    },
    {
      "type": "Feature",
      "properties": {
        "norad_id": 67050,
        "name": "STARLINK-36078",
        "group": "last-30-days",
        "lat": 39.30803375433007,
        "lon": -142.54371135806798,
        "alt_km": 364.65061087624326,
        "timestamp": "2025-12-26T08:37:53.294298+00:00",
        "meta_object_name": "STARLINK-36078",
        "meta_object_id": "2025-294W",
        "meta_epoch": "2025-12-26T04:00:01.998720",
        "meta_mean_motion": 15.67013142,
        "meta_eccentricity": 0.0001463,
        "meta_inclination": 42.9996,
        "meta_ra_of_asc_node": 100.0894,
        "meta_arg_of_pericenter": 280.3788,
        "meta_mean_anomaly": 181.7406,
        "meta_ephemeris_type": 0,
        "meta_classification_type": "U",
        "meta_norad_cat_id": 67050,
        "meta_element_set_no": 999,
        "meta_rev_at_epoch": 238,
        "meta_bstar": -0.020043,
        "meta_mean_motion_dot": -0.01940994,
        "meta_mean_motion_ddot": 0,
        "tle_line1": "1 67050U 25294W   25360.16668980 -.01940994  00000+0 -20043-1 0  9997",
        "tle_line2": "2 67050  42.9996 100.0894 0001463 280.3788 181.7406 15.67013142  2381"
      },
      "geometry": {
        "type": "Point",
        "coordinates": [
          -142.54371135806798,
          39.30803375433007
        ]
      }
    },
    {
      "type": "Feature",
      "properties": {
        "norad_id": 67051,
        "name": "STARLINK-35706",
        "group": "last-30-days",
        "lat": 38.575371862270366,
        "lon": -139.93573148352195,
        "alt_km": 364.7813379433037,
        "timestamp": "2025-12-26T08:37:53.294308+00:00",
        "meta_object_name": "STARLINK-35706",
        "meta_object_id": "2025-294X",
        "meta_epoch": "2025-12-26T04:00:01.998720",
        "meta_mean_motion": 15.66998289,
        "meta_eccentricity": 0.0001438,
        "meta_inclination": 42.9997,
        "meta_ra_of_asc_node": 100.0838,
        "meta_arg_of_pericenter": 278.8594,
        "meta_mean_anomaly": 185.4298,
        "meta_ephemeris_type": 0,
        "meta_classification_type": "U",
        "meta_norad_cat_id": 67051,
        "meta_element_set_no": 999,
        "meta_rev_at_epoch": 246,
        "meta_bstar": -0.020087,
        "meta_mean_motion_dot": -0.01943696,
        "meta_mean_motion_ddot": 0,
        "tle_line1": "1 67051U 25294X   25360.16668980 -.01943696  00000+0 -20087-1 0  9998",
        "tle_line2": "2 67051  42.9997 100.0838 0001438 278.8594 185.4298 15.66998289  2462"
      },
      "geometry": {
        "type": "Point",
        "coordinates": [
          -139.93573148352195,
          38.575371862270366
        ]
      }
    },
    {
      "type": "Feature",
      "properties": {
        "norad_id": 67052,
        "name": "STARLINK-35720",
        "group": "last-30-days",
        "lat": 37.86100823254342,
        "lon": -137.61585282162022,
        "alt_km": 364.90963049838683,
        "timestamp": "2025-12-26T08:37:53.294317+00:00",
        "meta_object_name": "STARLINK-35720",
        "meta_object_id": "2025-294Y",
        "meta_epoch": "2025-12-26T04:00:01.998720",
        "meta_mean_motion": 15.66992356,
        "meta_eccentricity": 0.0001441,
        "meta_inclination": 42.9997,
        "meta_ra_of_asc_node": 100.0791,
        "meta_arg_of_pericenter": 281.1724,
        "meta_mean_anomaly": 185.0785,
        "meta_ephemeris_type": 0,
        "meta_classification_type": "U",
        "meta_norad_cat_id": 67052,
        "meta_element_set_no": 999,
        "meta_rev_at_epoch": 245,
        "meta_bstar": -0.020042,
        "meta_mean_motion_dot": -0.01939429,
        "meta_mean_motion_ddot": 0,
        "tle_line1": "1 67052U 25294Y   25360.16668980 -.01939429  00000+0 -20042-1 0  9999",
        "tle_line2": "2 67052  42.9997 100.0791 0001441 281.1724 185.0785 15.66992356  2452"
      },
      "geometry": {
        "type": "Point",
        "coordinates": [
          -137.61585282162022,
          37.86100823254342
        ]
      }
    }
  ]
}